MOLNIYA 2-9             
1 07276U 74026A   21362.85663656  .00000124  00000+0  00000+0 0  9995
2 07276  64.2537 251.5945 6568994 283.3473  15.7263  2.45095346245035
MOLNIYA 2-10            
1 07376U 74056A   21361.38573268  .00000319  00000+0  00000+0 0  9991
2 07376  63.9039 112.4567 6688337 288.1711  13.4045  2.01198841346891
MOLNIYA 1-S             
1 07392U 74060A   21363.51632711 -.00000319  00000+0  00000+0 0  9991
2 07392   5.5409 285.5329 0009993 204.0333 262.2951  1.00276500117822
MOLNIYA 1-29            
1 07780U 75036A   21362.70590942  .00000269  00000+0 -33639-1 0  9995
2 07780  63.3486 235.0760 7037509 289.4753  11.1290  2.00591290342197
MOLNIYA 2-14            
1 08195U 75081A   21362.95141878 -.00000384  00000+0  00000+0 0  9995
2 08195  63.3669 206.8536 6919812 293.7688  10.7134  2.02061956339447
MOLNIYA 1-32            
1 08601U 76006A   21359.05675642  .00001403  00000+0  10002-2 0  9991
2 08601  63.3319 322.8288 7347155 283.1238  10.6848  2.00002270 49175
MOLNIYA 1-36            
1 09880U 77021A   21362.87049207  .00000201  00000+0 -60147-2 0  9996
2 09880  63.1756 292.4272 7305979 289.1766   9.6579  2.00334021225945
MOLNIYA 3-8             
1 10455U 77105A   21363.10548506 -.00000292  00000+0 -14292-2 0  9993
2 10455  62.9845  24.5219 7396376 281.2882  10.7133  2.00418444323725
MOLNIYA 1-40            
1 10925U 78055A   21362.21667940 -.00000517  00000+0  00000+0 0  9993
2 10925  62.9703  72.6055 7220178 280.0297  12.2312  2.00560975319240
MOLNIYA 3-10            
1 11057U 78095A   21363.28229896 -.00000134  00000+0 -55311-3 0  9991
2 11057  62.9102 102.5402 5813622 308.2975  12.3944  4.09834416376751
MOLNIYA 3-13            
1 11896U 80063A   21361.48120207  .00000155  00000+0  00000+0 0  9998
2 11896  62.6215 159.0362 7046522 276.1244  14.5445  2.00569619303644
MOLNIYA 1-49            
1 12156U 81009A   21363.05524404 -.00000765  00000+0  30875-3 0  9996
2 12156  61.7209 190.9774 7196915 259.8630  19.2809  2.05712378217981
MOLNIYA 1-52            
1 13012U 81123A   21362.90374193  .00000388  00000+0  14090-2 0  9996
2 13012  62.2956 304.4907 7291297 252.4786  21.9536  2.00875316293155
MOLNIYA 1-53            
1 13070U 82015A   21362.79766516  .00001667  00000+0  12547-1 0  9997
2 13070  62.5199 236.2291 7162545 281.9729  12.2113  2.00519407291839
MOLNIYA 3-20            
1 13875U 83015A   21363.03527186 -.00001441  00000+0 -11567-2 0  9991
2 13875  63.1269  19.6455 7382430 256.8003  18.7737  2.00797062220295
MOLNIYA 1-56            
1 13890U 83019A   21362.59975603 -.00001237  00000+0 -59224-3 0  9999
2 13890  63.0565  45.3926 7408377 262.7612  16.0919  1.99846141283180
MOLNIYA 1-62            
1 15214U 84089A   21359.95239739  .00007734  00000+0  12162-2 0  9993
2 15214  62.7980  46.4954 7537758 269.5605  12.8107  1.98360584240812
MOLNIYA 1-63            
1 15429U 84124A   21362.01989044  .00000540  00000+0  00000+0 0  9996
2 15429  63.6423 183.8577 6561642 261.2679 345.1959  2.00332604271319
MOLNIYA 3-24            
1 15738U 85040A   21361.42795525  .00000058  00000+0  00000+0 0  9994
2 15738  63.7628 113.9192 6717338 247.8397  31.4675  2.55626782299479
MOLNIYA 3-27            
1 16393U 85117A   21362.32152875  .00000015  00000+0  00000+0 0  9995
2 16393  64.5206 103.1276 6873419 250.0574  28.0347  2.12397182270545
MOLNIYA 1-69            
1 17078U 86089A   21362.62485517  .00000366  00000+0  00000+0 0  9999
2 17078  64.0711 202.6346 6598511 260.2815  25.0068  2.00986169257394
MOLNIYA 3-31            
1 17328U 87008A   21362.43688909 -.00000103  00000+0  00000+0 0  9998
2 17328  63.7689 148.2344 6900573 255.1321  24.6630  2.00615826252434
MOLNIYA 1-71            
1 18946U 88017A   21362.45879782  .00000487  00000+0  00000+0 0  9993
2 18946  63.4570 144.4055 7018196 257.1766  22.3319  2.00570462247621
MOLNIYA 1-75            
1 19807U 89014A   21359.04732072  .00001185  00000+0  00000+0 0  9995
2 19807  64.1487 304.4363 6947557 268.0610  18.2180  2.00373195240507
MOLNIYA 1-80            
1 21118U 91012A   21362.12072536  .00000009  00000+0  00000+0 0  9993
2 21118  65.1177 351.9655 6844648 279.9271  14.7357  2.05245842227463
MOLNIYA 3-40            
1 21196U 91022A   21362.89764212 -.00001292  00000+0  00000+0 0  9999
2 21196  65.1046 345.3417 6877490 276.6152  15.5706  2.03012765226224
MOLNIYA 1-81            
1 21426U 91043A   21362.55723555 -.00000226  00000+0  00000+0 0  9992
2 21426  64.2016   5.9144 7114967 268.1720  16.6313  2.00607536223736
MOLNIYA 3-41            
1 21706U 91065A   21363.60130572  .00000013  00000+0  00000+0 0  9998
2 21706  64.1131 184.0071 6746895 257.9013  24.7567  2.04360932223396
MOLNIYA 3-42            
1 22178U 92067A   21362.77154799  .00000215  00000+0  00000+0 0  9993
2 22178  64.6828 234.1769 6486752 269.8605  21.4441  2.20433935 76293
MOLNIYA 1-86            
1 22671U 93035A   21363.43946853  .00000076  00000+0  17785-3 0  9998
2 22671  63.1716 335.3347 4828044   4.6015 358.5800  5.62634680342736
MOLNIYA 1-87            
1 22949U 93079A   21361.52121979  .00001332  00000+0  00000+0 0  9990
2 22949  63.6987 111.6335 6820524 285.5377  13.3255  2.02857701205795
MOLNIYA 1-88            
1 23420U 94081A   21362.79002599  .00000108  00000+0  00000+0 0  9995
2 23420  64.2737 233.7226 5865820 286.1199  19.6143  3.34495781107991
MOLNIYA 3-47            
1 23642U 95042A   21363.43382229  .00001317  00000+0  00000+0 0  9995
2 23642  63.7364  93.8453 6877198 285.6222  12.9542  2.01951584193587
MOLNIYA 1-90            
1 24960U 97054A   21363.02225693  .00000148  00000+0  14568-3 0  9999
2 24960  63.6321 201.6648 6183507 299.8616  13.0115  3.18686468202579
MOLNIYA 1-91            
1 25485U 98054A   21362.93307654  .00000242  00000+0  22925-2 0  9990
2 25485  62.9778 176.8280 6820578 291.8447 336.6049  2.36442707174343
MOLNIYA 3-50            
1 25847U 99036A   21363.03316791 -.00000516  00000+0 -11782-3 0  9993
2 25847  62.9995   1.4263 7433814 280.9119  10.5673  2.00622837164692
